0 FENGYUN 1C DEB
1 30550U 99025AKQ 13283.73865961  .00003120  00000-0  26520-2 0  4123
2 30550 099.1395 208.0399 0160688 082.7993 279.1871 13.81607434337015
0 FENGYUN 1C DEB
1 30550U 99025AKQ 13284.04110076  .00002809  00000-0  24158-2 0  4115
2 30550 099.1392 208.3332 0162229 082.1075 343.3645 13.81614679337056
0 FENGYUN 1C DEB
1 30550U 99025AKQ 13285.28892360  .00002983  00000-0  25640-2 0  4126
2 30550 099.1388 209.5419 0162045 078.7463 069.8479 13.81619558337223
0 FENGYUN 1C DEB
1 30550U 99025AKQ 13286.72043075  .00003042  00000-0  26122-2 0  4131
2 30550 099.1391 210.9291 0162291 074.9697 349.9014 13.81627669337422
0 FENGYUN 1C DEB
1 30550U 99025AKQ 13287.73380450  .00003144  00000-0  26986-2 0  4146
2 30550 099.1393 211.9110 0162411 072.2983 350.2577 13.81634235337569
0 FENGYUN 1C DEB
1 30550U 99025AKQ 13290.05189968  .00003659  00000-0  31326-2 0  4152
2 30550 099.1398 214.1572 0162702 066.1898 000.1862 13.81648452337880
0 FENGYUN 1C DEB
1 30550U 99025AKQ 13291.29993755  .00003559  00000-0  30473-2 0  4168
2 30550 099.1399 215.3667 0162836 062.9044 087.8184 13.81656897338055
0 FENGYUN 1C DEB
1 30550U 99025AKQ 13292.30867600  .00003383  00000-0  28975-2 0  4170
2 30550 099.1399 216.3444 0163001 060.2609 065.2114 13.81663789338198
0 FENGYUN 1C DEB
1 30550U 99025AKQ 13293.74419171  .00003577  00000-0  30606-2 0  4185
2 30550 099.1398 217.7359 0163142 056.4776 005.4314 13.81672675338399
0 FENGYUN 1C DEB
1 30550U 99025AKQ 13294.75814841  .00003970  00000-0  33919-2 0  4198
2 30550 099.1395 218.7189 0163203 053.8133 008.8472 13.81679411338537
